{"type":"FeatureCollection","features":[{"type":"Feature","geometry":{"type":"LineString","coordinates":[[122.2409832,10.6466559,26.7109375],[122.2412686,10.6466336,25.8359375],[122.241497,10.6466159,26],[122.2417164,10.6466055,27.03125],[122.2419469,10.6465911,27.56640625]]},"properties":{"id":"way/1539907887","begin":0,"end":4}},{"type":"Feature","geometry":{"type":"LineString","coordinates":[[122.2411775,10.6463929,25],[122.2411653,10.6462461,25.5546875],[122.2411517,10.6460827,25.8515625],[122.2413568,10.6460759,26],[122.2413638,10.6461637,26],[122.2413746,10.6462777,26],[122.2413838,10.6463896,26]]},"properties":{"id":"way/1539907889","begin":0,"end":6}},{"type":"Feature","geometry":{"type":"LineString","coordinates":[[122.24236084424264,10.645076652461183],[122.2424105,10.6452096,16.40625],[122.2423412,10.6454718,22.0078125],[122.2422002,10.6457153,27.85546875],[122.2419731,10.6457925,27.1953125],[122.2419166,10.645804,26.9453125],[122.241618,10.6458219,25.8828125],[122.24133,10.6458704],[122.2411773,10.6458326,23.83203125],[122.2409781,10.6457236,22.71484375],[122.2409189,10.645627,20.96484375],[122.2408429,10.6455046,18.80859375],[122.2408064,10.6452794,15.6953125]]},"properties":{"id":"way/298284960","begin":0,"end":16}},{"type":"Feature","geometry":{"type":"LineString","coordinates":[[122.2409683,10.6463968,25.05078125],[122.2411775,10.6463929,25],[122.2412881,10.6463911,25.59765625],[122.2413838,10.6463896,26],[122.2414802,10.6463881,26]]},"properties":{"id":"way/1539907888","begin":0,"end":5}},{"type":"Feature","geometry":{"type":"LineString","coordinates":[[122.2409594,10.6462518,24.7421875],[122.240915,10.6462534,24.578125]]},"properties":{"id":"way/1539907900","begin":0,"end":1}},{"type":"Feature","geometry":{"type":"LineString","coordinates":[[122.2409189,10.645627,20.96484375],[122.2408978,10.64564]]},"properties":{"id":"way/1539907902","begin":0,"end":1}},{"type":"Feature","geometry":{"type":"LineString","coordinates":[[122.2409781,10.6457236,22.71484375],[122.2409603,10.6457346]]},"properties":{"id":"way/1539907901","begin":0,"end":1}},{"type":"Feature","geometry":{"type":"LineString","coordinates":[[122.2415651,10.6453772,19.4296875],[122.2418687,10.645309,20.3359375],[122.2419151,10.6453744,21.0703125],[122.2419215,10.6453941]]},"properties":{"id":"way/1539907904","begin":0,"end":4}},{"type":"Feature","geometry":{"type":"LineString","coordinates":[[122.2408429,10.6455046,18.80859375],[122.2408161,10.6455132,19.18359375]]},"properties":{"id":"way/1539907903","begin":0,"end":1}},{"type":"Feature","geometry":{"type":"LineString","coordinates":[[122.2418687,10.645309,20.3359375],[122.2420521,10.6452607,18.36328125],[122.2423611,10.6450765,14.56640625]]},"properties":{"id":"way/1539907906","begin":0,"end":2}},{"type":"Feature","geometry":{"type":"LineString","coordinates":[[122.2413638,10.6461637,26],[122.2415663,10.6461507,26],[122.2416291,10.6461582],[122.2416747,10.6461454,26],[122.2419164,10.646132,26.73828125]]},"properties":{"id":"way/1539907898","begin":0,"end":4}},{"type":"Feature","geometry":{"type":"LineString","coordinates":[[122.2415651,10.6453772,19.4296875],[122.2412562,10.6453865,18.65625],[122.2409419,10.6453219,16.671875],[122.2408064,10.6452794,15.6953125]]},"properties":{"id":"way/1539907905","begin":0,"end":3}},{"type":"Feature","geometry":{"type":"LineString","coordinates":[[122.2409699,10.6464255,25.05078125],[122.2408998,10.6464259,25.22265625]]},"properties":{"id":"way/1539907899","begin":0,"end":1}},{"type":"Feature","geometry":{"type":"LineString","coordinates":[[122.2413488,10.6459901,25.83203125],[122.2413871,10.6459877,25.8671875],[122.2414533,10.6459849,25.94140625],[122.2416179,10.6459778,26],[122.2418195,10.6459617,26.59375],[122.2419115,10.6459543,27.08984375]]},"properties":{"id":"way/1539907892","begin":0,"end":5}},{"type":"Feature","geometry":{"type":"LineString","coordinates":[[122.2411517,10.6460827,25.8515625],[122.2409458,10.6460874,24.60546875]]},"properties":{"id":"way/1540044684","begin":0,"end":1}},{"type":"Feature","geometry":{"type":"LineString","coordinates":[[122.2413568,10.6460759,26],[122.2413488,10.6459901,25.83203125],[122.24133,10.6458704]]},"properties":{"id":"way/1539907891","begin":0,"end":2}},{"type":"Feature","geometry":{"type":"LineString","coordinates":[[122.2414802,10.6463881,26],[122.2417003,10.6463738,26.18359375],[122.2419304,10.6463566,27.03515625]]},"properties":{"id":"way/1539907894","begin":0,"end":2}},{"type":"Feature","geometry":{"type":"LineString","coordinates":[[122.2415651,10.6453772,19.4296875],[122.2416158,10.6457883,25.6796875],[122.241618,10.6458219,25.8828125],[122.2416179,10.6459778,26]]},"properties":{"id":"way/1539907893","begin":0,"end":3}},{"type":"Feature","geometry":{"type":"Polygon","coordinates":[[[122.2413764,10.6461484],[122.2413646,10.6460022],[122.2419002,10.645969],[122.2419053,10.6461152],[122.2413764,10.6461484]]]},"properties":{"id":"way/1543053040","@id":"way/1543053040","access":null,"alt_name":null,"building":"school","designation":null,"foot":null,"footway":null,"highway":null,"layer":null,"name":"Admin Building","nat_name":null,"oneway":null,"ref":null,"shop":null,"source":null,"ele_1_2":26,"n":1,"distance":0.000008682141228196327,"feature_x":122.24161843714508,"feature_y":10.645986465509303,"nearest_x":122.2416179,"nearest_y":10.6459778}},{"type":"Feature","geometry":{"type":"Polygon","coordinates":[[[122.2414068,10.6463718],[122.2413962,10.6461853],[122.2418988,10.6461526],[122.2419158,10.6463446],[122.2414068,10.6463718]]]},"properties":{"id":"way/1543053041","@id":"way/1543053041","access":null,"alt_name":null,"building":"school","designation":null,"foot":null,"footway":null,"highway":null,"layer":"1","name":"Covered Court","nat_name":null,"oneway":null,"ref":null,"shop":null,"source":null,"ele_1_2":26,"n":1,"distance":0,"feature_x":122.2414936,"feature_y":10.6462731,"nearest_x":122.2414936,"nearest_y":10.6462731}},{"type":"Feature","geometry":{"type":"Polygon","coordinates":[[[122.2409853,10.6463796],[122.2409685,10.6461046],[122.2411381,10.6460989],[122.2411539,10.6463779],[122.2409853,10.6463796]]]},"properties":{"id":"way/1543053042","@id":"way/1543053042","access":null,"alt_name":null,"building":"school","designation":null,"foot":null,"footway":null,"highway":null,"layer":null,"name":"Computer Laboraty","nat_name":null,"oneway":null,"ref":null,"shop":null,"source":null,"ele_1_2":25.5546875,"n":1,"distance":0.00001994479369229079,"feature_x":122.24114538549883,"feature_y":10.64624719883491,"nearest_x":122.2411653,"nearest_y":10.6462461}},{"type":"Feature","geometry":{"type":"Polygon","coordinates":[[[122.2410596,10.6460662],[122.2410457,10.6459815],[122.2412726,10.6459815],[122.2412758,10.6460574],[122.2410596,10.6460662]]]},"properties":{"id":"way/1543053043","@id":"way/1543053043","access":null,"alt_name":null,"building":"school","designation":null,"foot":null,"footway":null,"highway":null,"layer":null,"name":"Registrar","nat_name":null,"oneway":null,"ref":null,"shop":null,"source":null,"ele_1_2":25.1171875,"n":1,"distance":0.00001359999999905881,"feature_x":122.2411791,"feature_y":10.6459815,"nearest_x":122.2411791,"nearest_y":10.6459679}},{"type":"Feature","geometry":{"type":"Polygon","coordinates":[[[122.2410764,10.6466029],[122.240991,10.6466088],[122.2409781,10.6464261],[122.2410644,10.6464213],[122.2410764,10.6466029]]]},"properties":{"id":"way/1543053044","@id":"way/1543053044","access":null,"alt_name":null,"building":"school","designation":null,"foot":null,"footway":null,"highway":null,"layer":null,"name":"Coop","nat_name":null,"oneway":null,"ref":null,"shop":null,"source":null,"ele_1_2":25.32421875,"n":1,"distance":0.000022762299673769767,"feature_x":122.24100034390106,"feature_y":10.646557781373005,"nearest_x":122.2409777,"nearest_y":10.6465601}},{"type":"Feature","geometry":{"type":"Polygon","coordinates":[[[122.241089,10.6465668],[122.2410817,10.6464149],[122.2414568,10.6464013],[122.2414614,10.6465457],[122.241089,10.6465668]]]},"properties":{"id":"way/1543053045","@id":"way/1543053045","access":null,"alt_name":null,"building":"school","designation":null,"foot":null,"footway":null,"highway":null,"layer":null,"name":"E Building","nat_name":null,"oneway":null,"ref":null,"shop":null,"source":null,"ele_1_2":25.59765625,"n":1,"distance":0.000016305841520676578,"feature_x":122.24128869081267,"feature_y":10.646407395134492,"nearest_x":122.2412881,"nearest_y":10.6463911}},{"type":"Feature","geometry":{"type":"Polygon","coordinates":[[[122.2415243,10.6465426],[122.2415077,10.6463985],[122.2419181,10.6463706],[122.2419298,10.6465129],[122.2415243,10.6465426]]]},"properties":{"id":"way/1543053046","@id":"way/1543053046","access":null,"alt_name":null,"building":"","designation":null,"foot":null,"footway":null,"highway":null,"layer":null,"name":"D Building","nat_name":null,"oneway":null,"ref":null,"shop":null,"source":null,"ele_1_2":26.18359375,"n":1,"distance":0.000011579850989803361,"feature_x":122.24170108541387,"feature_y":10.646385353184582,"nearest_x":122.2417003,"nearest_y":10.6463738}},{"type":"Feature","geometry":{"type":"Polygon","coordinates":[[[122.2415423,10.646733],[122.2415357,10.6466225],[122.2419272,10.6466008],[122.2419322,10.6467003],[122.2415423,10.646733]]]},"properties":{"id":"way/1543053047","@id":"way/1543053047","access":null,"alt_name":null,"building":"school","designation":null,"foot":null,"footway":null,"highway":null,"layer":null,"name":"Science Building","nat_name":null,"oneway":null,"ref":null,"shop":null,"source":null,"ele_1_2":27.03125,"n":1,"distance":0.00002157871097153047,"feature_x":122.2417179854262,"feature_y":10.64662702039012,"nearest_x":122.2417164,"nearest_y":10.6466055}},{"type":"Feature","geometry":{"type":"Polygon","coordinates":[[[122.2410163,10.6467762],[122.2410121,10.6466651],[122.2414548,10.6466277],[122.241462,10.6467406],[122.2410163,10.6467762]]]},"properties":{"id":"way/1543053048","@id":"way/1543053048","access":null,"alt_name":null,"building":"school","designation":null,"foot":null,"footway":null,"highway":null,"layer":null,"name":"Home Tech Building","nat_name":null,"oneway":null,"ref":null,"shop":null,"source":null,"ele_1_2":25.8359375,"n":1,"distance":0.00001976961583760025,"feature_x":122.24127019221761,"feature_y":10.646653305394018,"nearest_x":122.2412686,"nearest_y":10.6466336}},{"type":"Feature","geometry":{"type":"Polygon","coordinates":[[[122.2409027,10.6462835],[122.2408425,10.6462922],[122.2408322,10.646212],[122.2408983,10.6462084],[122.2409027,10.6462835]]]},"properties":{"id":"way/1543053051","@id":"way/1543053051","access":null,"alt_name":null,"building":"school","designation":null,"foot":null,"footway":null,"highway":null,"layer":null,"name":"ROTC","nat_name":null,"oneway":null,"ref":null,"shop":null,"source":null,"ele_1_2":24.578125,"n":1,"distance":0.000014916597802499042,"feature_x":122.24090008503082,"feature_y":10.646253179581738,"nearest_x":122.240915,"nearest_y":10.6462534}},{"type":"Feature","geometry":{"type":"Polygon","coordinates":[[[122.2409577,10.6465502],[122.2409682,10.6470882],[122.2408505,10.6470934],[122.2408382,10.6465531],[122.2409577,10.6465502]]]},"properties":{"id":"way/1543053052","@id":"way/1543053052","access":null,"alt_name":null,"building":"school","designation":null,"foot":null,"footway":null,"highway":null,"layer":null,"name":"Automotive Building","nat_name":null,"oneway":null,"ref":null,"shop":null,"source":null,"ele_1_2":25.32421875,"n":1,"distance":0.00005258302375705606,"feature_x":122.24092514503427,"feature_y":10.646561817545964,"nearest_x":122.2409777,"nearest_y":10.6465601}},{"type":"Feature","geometry":{"type":"Polygon","coordinates":[[[122.2409695,10.6470953],[122.2409791,10.6473426],[122.2408665,10.64735],[122.2408507,10.647102],[122.2409695,10.6470953]]]},"properties":{"id":"way/1543053053","@id":"way/1543053053","access":null,"alt_name":null,"building":"school","designation":null,"foot":null,"footway":null,"highway":null,"layer":null,"name":"Innovation Center","nat_name":null,"oneway":null,"ref":null,"shop":null,"source":null,"ele_1_2":25.83984375,"n":1,"distance":0.00004781242568508805,"feature_x":122.2409523961721,"feature_y":10.647230606690842,"nearest_x":122.2410002,"nearest_y":10.6472297}},{"type":"Feature","geometry":{"type":"Polygon","coordinates":[[[122.2410466,10.6477209],[122.2410391,10.6475027],[122.2414576,10.6474689],[122.2414393,10.6477136],[122.2410466,10.6477209]]]},"properties":{"id":"way/1543053054","@id":"way/1543053054","access":null,"alt_name":null,"building":"school","designation":null,"foot":null,"footway":null,"highway":null,"layer":null,"name":"PE Gym","nat_name":null,"oneway":null,"ref":null,"shop":null,"source":null,"ele_1_2":23.57421875,"n":1,"distance":0.000041804780660305844,"feature_x":122.24104168010753,"feature_y":10.647577763928474,"nearest_x":122.2409999,"nearest_y":10.6475792}},{"type":"Feature","geometry":{"type":"Polygon","coordinates":[[[122.2419263,10.6455795],[122.2419227,10.6454289],[122.2422571,10.6453898],[122.2422711,10.6455459],[122.2419263,10.6455795]]]},"properties":{"id":"way/1543053055","@id":"way/1543053055","access":null,"alt_name":null,"building":"school","designation":null,"foot":null,"footway":null,"highway":null,"layer":null,"name":"ISAT U Miagao Campus Hostel","nat_name":null,"oneway":null,"ref":null,"shop":null,"source":null,"ele_1_2":21.98828125,"n":1,"distance":0.00002946135672296442,"feature_x":122.24192458895537,"feature_y":10.645423709344684,"nearest_x":122.2419216,"nearest_y":10.6453944}},{"type":"Feature","geometry":{"type":"Polygon","coordinates":[[[122.2409834,10.645782],[122.2409133,10.6458411],[122.2408477,10.6457773],[122.240915,10.6457204],[122.2409834,10.645782]]]},"properties":{"id":"way/1543053056","@id":"way/1543053056","access":null,"alt_name":null,"building":"school","designation":null,"foot":null,"footway":null,"highway":null,"layer":null,"name":"Chapel","nat_name":null,"oneway":null,"ref":null,"shop":null,"source":null,"ele_1_2":22.71484375,"n":1,"distance":0.000026872866834648684,"feature_x":122.24092872337688,"feature_y":10.64575714978454,"nearest_x":122.2409489,"nearest_y":10.6457394}},{"type":"Feature","geometry":{"type":"Polygon","coordinates":[[[122.2409044,10.6456883],[122.2408227,10.6457657],[122.240742,10.6457155],[122.2408525,10.6456169],[122.2409044,10.6456883]]]},"properties":{"id":"way/1543053057","@id":"way/1543053057","access":null,"alt_name":null,"building":"school","designation":null,"foot":null,"footway":null,"highway":null,"layer":null,"name":"Alumni Center","nat_name":null,"oneway":null,"ref":null,"shop":null,"source":null,"ele_1_2":21.625,"n":1,"distance":0.000028409450402915327,"feature_x":122.24087361941285,"feature_y":10.645660671733786,"nearest_x":122.2408944,"nearest_y":10.6456413}},{"type":"Feature","geometry":{"type":"Polygon","coordinates":[[[122.2408355,10.6455841],[122.240705,10.6456954],[122.2406002,10.6456384],[122.2407594,10.6453867],[122.2408355,10.6455841]]]},"properties":{"id":"way/1543053058","@id":"way/1543053058","access":null,"alt_name":null,"building":"school","designation":null,"foot":null,"footway":null,"highway":null,"layer":null,"name":"Granisium","nat_name":null,"oneway":null,"ref":null,"shop":null,"source":null,"ele_1_2":19.18359375,"n":1,"distance":0.00003457726697067776,"feature_x":122.24078348110092,"feature_y":10.64552467147827,"nearest_x":122.2408161,"nearest_y":10.6455132}},{"type":"Feature","geometry":{"type":"Polygon","coordinates":[[[122.2409384,10.6459808],[122.2409214,10.6459505],[122.2410176,10.6458935],[122.2410758,10.6459251],[122.241014,10.6459331],[122.2409384,10.6459808]]]},"properties":{"id":"way/1543053059","@id":"way/1543053059","access":null,"alt_name":null,"building":"school","designation":null,"foot":null,"footway":null,"highway":null,"layer":null,"name":"University Cafeteria","nat_name":null,"oneway":null,"ref":null,"shop":null,"source":null,"ele_1_2":24.515625,"n":1,"distance":0.000013123887253368658,"feature_x":122.24098689690827,"feature_y":10.645950200760263,"nearest_x":122.2409939,"nearest_y":10.6459613}},{"type":"Feature","geometry":{"type":"Polygon","coordinates":[[[122.2419199,10.6459669],[122.241968,10.6459615],[122.2419694,10.6460433],[122.241922,10.6460466],[122.2419199,10.6459669]]]},"properties":{"id":"way/1543053060","@id":"way/1543053060","access":null,"alt_name":null,"building":"school","designation":null,"foot":null,"footway":null,"highway":null,"layer":null,"name":"Supply Office","nat_name":null,"oneway":null,"ref":null,"shop":null,"source":null,"ele_1_2":27.33984375,"n":1,"distance":0.00000790290331279728,"feature_x":122.2419202001614,"feature_y":10.645978291840164,"nearest_x":122.2419123,"nearest_y":10.6459785}},{"type":"Feature","properties":{},"geometry":{"type":"LineString","coordinates":[[122.24133,10.6458704],[122.2411766,10.6459325],[122.2410242,10.6459427],[122.2409399,10.645995],[122.240946,10.6460876],[122.240959,10.646252],[122.2409674,10.6463975],[122.2409696,10.6464258],[122.2409837,10.6466565],[122.2409881,10.6468935],[122.2409914,10.6471047],[122.2410002,10.6475805]]}},{"type":"Feature","properties":{},"geometry":{"type":"Polygon","coordinates":[[[122.2419508,10.6465077],[122.2419398,10.6463569],[122.2421603,10.6463413],[122.2421651,10.6464901],[122.2419508,10.6465077]]]}},{"type":"Feature","properties":{},"geometry":{"type":"LineString","coordinates":[[122.2414797,10.6463882],[122.2414948,10.646581],[122.2414975,10.646616]]}},{"type":"Feature","properties":{},"geometry":{"type":"LineString","coordinates":[[122.2419469,10.6465911],[122.2419295,10.6463551],[122.2419156,10.6461315],[122.2419122,10.6459549],[122.2419171,10.6458031],[122.2418941,10.6454312],[122.2419214,10.6453941]]}},{"type":"Feature","properties":{},"geometry":{"type":"Polygon","coordinates":[[[122.2415055,10.6465926],[122.2415055,10.6465926],[122.2415055,10.6465926],[122.2415055,10.6465926]]]}},{"type":"Feature","properties":{"building":"school","name":"CR (near cover court)"},"geometry":{"type":"Polygon","coordinates":[[[122.2414985,10.6465982],[122.2414946,10.6465533],[122.2415186,10.6465498],[122.2415222,10.6465963],[122.2414985,10.6465982]]]}},{"type":"Feature","properties":{},"geometry":{"type":"Polygon","coordinates":[[[122.2409619,10.6460724],[122.2409539,10.6460066],[122.2409831,10.6459929],[122.2410445,10.6459811],[122.241058,10.6460647],[122.2409619,10.6460724]]]}},{"type":"Feature","properties":{},"geometry":{"type":"Point","coordinates":[122.2408162,10.6455132]}}]}