{"type":"FeatureCollection","features":[{"type":"Feature","geometry":{"type":"Point","coordinates":[122.2409331,10.6482548]},"properties":{"fid":2,"id":"node/3026614730","@id":"node/3026614730","access":null,"addr:city":null,"addr:street":null,"alt_name":null,"building":"yes","crossing":null,"crossing:markings":null,"designation":null,"foot":null,"footway":null,"highway":null,"name":"University Oval","nat_name":null,"oneway":null,"ref":null,"shelter":null,"shop":null,"source":null,"supervised":null,"ele_1":29}},{"type":"Feature","geometry":{"type":"Point","coordinates":[122.2415651,10.6453772]},"properties":{"fid":4,"id":"node/14021185359","@id":"node/14021185359","access":null,"addr:city":null,"addr:street":null,"alt_name":null,"building":"yes","crossing":null,"crossing:markings":null,"designation":null,"foot":null,"footway":null,"highway":null,"name":"Gate","nat_name":null,"oneway":null,"ref":null,"shelter":null,"shop":null,"source":null,"supervised":null,"ele_1":19.4296875}},{"type":"Feature","geometry":{"type":"Point","coordinates":[122.2416158,10.6457883]},"properties":{"fid":5,"id":"node/14021185360","@id":"node/14021185360","access":null,"addr:city":null,"addr:street":null,"alt_name":null,"building":"yes","crossing":null,"crossing:markings":null,"designation":null,"foot":null,"footway":null,"highway":null,"name":"Guard House","nat_name":null,"oneway":null,"ref":null,"shelter":null,"shop":null,"source":null,"supervised":null,"ele_1":25.6796875}},{"type":"Feature","geometry":{"type":"Point","coordinates":[122.2416179,10.6459778]},"properties":{"fid":6,"id":"node/14021185361","@id":"node/14021185361","access":null,"addr:city":null,"addr:street":null,"alt_name":null,"building":"yes","crossing":null,"crossing:markings":null,"designation":null,"foot":null,"footway":null,"highway":null,"name":"Admin Building","nat_name":null,"oneway":null,"ref":null,"shelter":null,"shop":null,"source":null,"supervised":null,"ele_1":26}},{"type":"Feature","geometry":{"type":"Point","coordinates":[122.24117910000001,10.6459679]},"properties":{"fid":7,"id":"node/14021185362","@id":"node/14021185362","access":null,"addr:city":null,"addr:street":null,"alt_name":null,"building":"yes","crossing":null,"crossing:markings":null,"designation":null,"foot":null,"footway":null,"highway":null,"name":"Registrar","nat_name":null,"oneway":null,"ref":null,"shelter":null,"shop":null,"source":null,"supervised":null,"ele_1":25.1171875}},{"type":"Feature","geometry":{"type":"Point","coordinates":[122.24099390000002,10.6459613]},"properties":{"fid":8,"id":"node/14021185363","@id":"node/14021185363","access":null,"addr:city":null,"addr:street":null,"alt_name":null,"building":"yes","crossing":null,"crossing:markings":null,"designation":null,"foot":null,"footway":null,"highway":null,"name":"University Cafeteria","nat_name":null,"oneway":null,"ref":null,"shelter":null,"shop":null,"source":null,"supervised":null,"ele_1":24.515625}},{"type":"Feature","geometry":{"type":"Point","coordinates":[122.2413871,10.6459877]},"properties":{"fid":9,"id":"node/14021185364","@id":"node/14021185364","access":null,"addr:city":null,"addr:street":null,"alt_name":null,"building":"yes","crossing":null,"crossing:markings":null,"designation":null,"foot":null,"footway":null,"highway":null,"name":"Clinic","nat_name":null,"oneway":null,"ref":null,"shelter":null,"shop":null,"source":null,"supervised":null,"ele_1":25.8671875}},{"type":"Feature","geometry":{"type":"Point","coordinates":[122.2418195,10.6459617]},"properties":{"fid":10,"id":"node/14021185365","@id":"node/14021185365","access":null,"addr:city":null,"addr:street":null,"alt_name":null,"building":"yes","crossing":null,"crossing:markings":null,"designation":null,"foot":null,"footway":null,"highway":null,"name":"Cashier","nat_name":null,"oneway":null,"ref":null,"shelter":null,"shop":null,"source":null,"supervised":null,"ele_1":26.59375}},{"type":"Feature","geometry":{"type":"Point","coordinates":[122.24191,10.6459907]},"properties":{"fid":11,"id":"node/14021185366","@id":"node/14021185366","access":null,"addr:city":null,"addr:street":null,"alt_name":null,"building":"yes","crossing":null,"crossing:markings":null,"designation":null,"foot":null,"footway":null,"highway":null,"name":"Supply Office","nat_name":null,"oneway":null,"ref":null,"shelter":null,"shop":null,"source":null,"supervised":null,"ele_1":27.08984375}},{"type":"Feature","geometry":{"type":"Point","coordinates":[122.2413927,10.6462757]},"properties":{"fid":12,"id":"node/14021185367","@id":"node/14021185367","access":null,"addr:city":null,"addr:street":null,"alt_name":null,"building":"yes","crossing":null,"crossing:markings":null,"designation":null,"foot":null,"footway":null,"highway":null,"name":"Covered Court","nat_name":null,"oneway":null,"ref":null,"shelter":null,"shop":null,"source":null,"supervised":null,"ele_1":26}},{"type":"Feature","geometry":{"type":"Point","coordinates":[122.2417003,10.6463738]},"properties":{"fid":13,"id":"node/14021185370","@id":"node/14021185370","access":null,"addr:city":null,"addr:street":null,"alt_name":null,"building":"yes","crossing":null,"crossing:markings":null,"designation":null,"foot":null,"footway":null,"highway":null,"name":"D Building","nat_name":null,"oneway":null,"ref":null,"shelter":null,"shop":null,"source":null,"supervised":null,"ele_1":26.18359375}},{"type":"Feature","geometry":{"type":"Point","coordinates":[122.2411653,10.6462461]},"properties":{"fid":14,"id":"node/14021185371","@id":"node/14021185371","access":null,"addr:city":null,"addr:street":null,"alt_name":null,"building":"yes","crossing":null,"crossing:markings":null,"designation":null,"foot":null,"footway":null,"highway":null,"name":"Computer Laboratory","nat_name":null,"oneway":null,"ref":null,"shelter":null,"shop":null,"source":null,"supervised":null,"ele_1":25.5546875}},{"type":"Feature","geometry":{"type":"Point","coordinates":[122.2408998,10.6464259]},"properties":{"fid":15,"id":"node/14021185372","@id":"node/14021185372","access":null,"addr:city":null,"addr:street":null,"alt_name":null,"building":"yes","crossing":null,"crossing:markings":null,"designation":null,"foot":null,"footway":null,"highway":null,"name":"CR","nat_name":null,"oneway":null,"ref":null,"shelter":null,"shop":null,"source":null,"supervised":null,"ele_1":25.22265625}},{"type":"Feature","geometry":{"type":"Point","coordinates":[122.24097770000002,10.6465601]},"properties":{"fid":16,"id":"node/14021185373","@id":"node/14021185373","access":null,"addr:city":null,"addr:street":null,"alt_name":null,"building":"yes","crossing":null,"crossing:markings":null,"designation":null,"foot":null,"footway":null,"highway":null,"name":"University Coop","nat_name":null,"oneway":null,"ref":null,"shelter":null,"shop":null,"source":null,"supervised":null,"ele_1":25.32421875}},{"type":"Feature","geometry":{"type":"Point","coordinates":[122.2412686,10.6466336]},"properties":{"fid":17,"id":"node/14021185374","@id":"node/14021185374","access":null,"addr:city":null,"addr:street":null,"alt_name":null,"building":"yes","crossing":null,"crossing:markings":null,"designation":null,"foot":null,"footway":null,"highway":null,"name":"HomeTech Building","nat_name":null,"oneway":null,"ref":null,"shelter":null,"shop":null,"source":null,"supervised":null,"ele_1":25.8359375}},{"type":"Feature","geometry":{"type":"Point","coordinates":[122.24171640000002,10.6466055]},"properties":{"fid":18,"id":"node/14021185375","@id":"node/14021185375","access":null,"addr:city":null,"addr:street":null,"alt_name":null,"building":"yes","crossing":null,"crossing:markings":null,"designation":null,"foot":null,"footway":null,"highway":null,"name":"Science Building","nat_name":null,"oneway":null,"ref":null,"shelter":null,"shop":null,"source":null,"supervised":null,"ele_1":27.03125}},{"type":"Feature","geometry":{"type":"Point","coordinates":[122.2419312,10.6463873]},"properties":{"fid":19,"id":"node/14021185376","@id":"node/14021185376","access":null,"addr:city":null,"addr:street":null,"alt_name":null,"building":"yes","crossing":null,"crossing:markings":null,"designation":null,"foot":null,"footway":null,"highway":null,"name":"Drafting Building","nat_name":null,"oneway":null,"ref":null,"shelter":null,"shop":null,"source":null,"supervised":null,"ele_1":27.03515625}},{"type":"Feature","geometry":{"type":"Point","coordinates":[122.2409992,10.6475712]},"properties":{"fid":20,"id":"node/14021185377","@id":"node/14021185377","access":null,"addr:city":null,"addr:street":null,"alt_name":null,"building":"yes","crossing":null,"crossing:markings":null,"designation":null,"foot":null,"footway":null,"highway":null,"name":"P.E. Gym","nat_name":null,"oneway":null,"ref":null,"shelter":null,"shop":null,"source":null,"supervised":null,"ele_1":23.36328125}},{"type":"Feature","geometry":{"type":"Point","coordinates":[122.240988,10.6467484]},"properties":{"fid":21,"id":"node/14021185378","@id":"node/14021185378","access":null,"addr:city":null,"addr:street":null,"alt_name":null,"building":"yes","crossing":null,"crossing:markings":null,"designation":null,"foot":null,"footway":null,"highway":null,"name":"Automotive Building","nat_name":null,"oneway":null,"ref":null,"shelter":null,"shop":null,"source":null,"supervised":null,"ele_1":27.05078125}},{"type":"Feature","geometry":{"type":"Point","coordinates":[122.24100020000002,10.6472297]},"properties":{"fid":22,"id":"node/14021185379","@id":"node/14021185379","access":null,"addr:city":null,"addr:street":null,"alt_name":null,"building":"yes","crossing":null,"crossing:markings":null,"designation":null,"foot":null,"footway":null,"highway":null,"name":"Innovation Center","nat_name":null,"oneway":null,"ref":null,"shelter":null,"shop":null,"source":null,"supervised":null,"ele_1":25.83984375}},{"type":"Feature","geometry":{"type":"Point","coordinates":[122.2419216,10.6453944]},"properties":{"fid":25,"id":"node/14021185382","@id":"node/14021185382","access":null,"addr:city":null,"addr:street":null,"alt_name":null,"building":"yes","crossing":null,"crossing:markings":null,"designation":null,"foot":null,"footway":null,"highway":null,"name":"ISAT U Miagao Campus Hostel","nat_name":null,"oneway":null,"ref":null,"shelter":null,"shop":null,"source":null,"supervised":null,"ele_1":21.98828125}},{"type":"Feature","geometry":{"type":"Point","coordinates":[122.24094890000002,10.6457394]},"properties":{"fid":26,"id":"node/14021185383","@id":"node/14021185383","access":null,"addr:city":null,"addr:street":null,"alt_name":null,"building":"yes","crossing":null,"crossing:markings":null,"designation":null,"foot":null,"footway":null,"highway":null,"name":"Chapel","nat_name":null,"oneway":null,"ref":null,"shelter":null,"shop":null,"source":null,"supervised":null,"ele_1":22.71484375}},{"type":"Feature","geometry":{"type":"Point","coordinates":[122.24089439999999,10.6456413]},"properties":{"fid":27,"id":"node/14021185384","@id":"node/14021185384","access":null,"addr:city":null,"addr:street":null,"alt_name":null,"building":"yes","crossing":null,"crossing:markings":null,"designation":null,"foot":null,"footway":null,"highway":null,"name":"Alumni Center","nat_name":null,"oneway":null,"ref":null,"shelter":null,"shop":null,"source":null,"supervised":null,"ele_1":21.625}},{"type":"Feature","geometry":{"type":"Point","coordinates":[122.2408161,10.6455132]},"properties":{"fid":28,"id":"node/14021185385","@id":"node/14021185385","access":null,"addr:city":null,"addr:street":null,"alt_name":null,"building":"yes","crossing":null,"crossing:markings":null,"designation":null,"foot":null,"footway":null,"highway":null,"name":"Granisium","nat_name":null,"oneway":null,"ref":null,"shelter":null,"shop":null,"source":null,"supervised":null,"ele_1":19.18359375}},{"type":"Feature","geometry":{"type":"Point","coordinates":[122.2419469,10.6465911]},"properties":{"fid":31,"id":"node/14021185398","@id":"node/14021185398","access":null,"addr:city":null,"addr:street":null,"alt_name":null,"building":"yes","crossing":null,"crossing:markings":null,"designation":null,"foot":null,"footway":null,"highway":null,"name":"Annex","nat_name":null,"oneway":null,"ref":null,"shelter":null,"shop":null,"source":null,"supervised":null,"ele_1":27.56640625}},{"type":"Feature","geometry":{"type":"Point","coordinates":[122.2416124,10.6461575]},"properties":{"fid":32,"id":"node/14021201922","@id":"node/14021201922","access":null,"addr:city":null,"addr:street":null,"alt_name":null,"building":"yes","crossing":null,"crossing:markings":null,"designation":null,"foot":null,"footway":null,"highway":null,"name":"Student Republic Office","nat_name":null,"oneway":null,"ref":null,"shelter":null,"shop":null,"source":null,"supervised":null,"ele_1":26}},{"type":"Feature","geometry":{"type":"Point","coordinates":[122.240915,10.6462534]},"properties":{"fid":33,"id":"node/14021201928","@id":"node/14021201928","access":null,"addr:city":null,"addr:street":null,"alt_name":null,"building":"yes","crossing":null,"crossing:markings":null,"designation":null,"foot":null,"footway":null,"highway":null,"name":"ROTC","nat_name":null,"oneway":null,"ref":null,"shelter":null,"shop":null,"source":null,"supervised":null,"ele_1":24.578125}},{"type":"Feature","geometry":{"type":"Point","coordinates":[122.2414924,10.6465554]},"properties":{"fid":34,"id":"node/14021201940","@id":"node/14021201940","access":null,"addr:city":null,"addr:street":null,"alt_name":null,"building":"yes","crossing":null,"crossing:markings":null,"designation":null,"foot":null,"footway":null,"highway":null,"name":"CR","nat_name":null,"oneway":null,"ref":null,"shelter":null,"shop":null,"source":null,"supervised":null,"ele_1":26}},{"type":"Feature","geometry":{"type":"Point","coordinates":[122.2412881,10.6463911]},"properties":{"fid":35,"id":"node/14021333439","@id":"node/14021333439","access":null,"addr:city":null,"addr:street":null,"alt_name":null,"building":"yes","crossing":null,"crossing:markings":null,"designation":null,"foot":null,"footway":null,"highway":null,"name":"E Building","nat_name":null,"oneway":null,"ref":null,"shelter":null,"shop":null,"source":null,"supervised":null,"ele_1":25.59765625}},{"type":"Feature","geometry":{"type":"LineString","coordinates":[[122.2423611,10.6450765,0],[122.2424105,10.6452096,0],[122.2423412,10.6454718,0],[122.2422002,10.6457153,0],[122.2419731,10.6457925,0],[122.2419138,10.6458109,0],[122.2416194,10.6458178,0],[122.2413324,10.6458537,0],[122.2411778,10.6458298,0],[122.2409818,10.6457212,0],[122.2409629,10.6457035,0],[122.2409291,10.6456243,0],[122.2408738,10.6454946,0],[122.240839,10.645413,0],[122.2408195,10.6452762,0]]},"properties":{"fid":3,"id":"way/298284960","@id":"way/298284960","access":"private","addr:city":null,"addr:street":null,"alt_name":null,"building":null,"crossing":null,"crossing:markings":null,"designation":null,"foot":null,"footway":null,"highway":"footway","name":null,"nat_name":null,"oneway":"yes","ref":null,"shelter":null,"shop":null,"source":null,"supervised":null}},{"type":"Feature","geometry":{"type":"LineString","coordinates":[[122.2413324,10.6458537,0],[122.2413404,10.6459011,0],[122.2411758,10.6459227,0],[122.2410237,10.6459427,0],[122.2409939,10.6459613,0],[122.2409399,10.6459949,0],[122.2409594,10.6462518,0],[122.2409683,10.6463968,0],[122.2409699,10.6464255,0],[122.2409777,10.6465601,0],[122.2409832,10.6466559,0],[122.240988,10.6467484,0],[122.2409937,10.6468897,0],[122.2409984,10.6470066,0],[122.2409958,10.6471037,0],[122.2410002,10.6472297,0],[122.2409992,10.6475712,0],[122.2409331,10.6482548,0]]},"properties":{"fid":4,"id":"way/298743255","@id":"way/298743255","access":"yes","addr:city":null,"addr:street":null,"alt_name":null,"building":null,"crossing":null,"crossing:markings":null,"designation":null,"foot":null,"footway":"yes","highway":"footway","name":null,"nat_name":null,"oneway":null,"ref":null,"shelter":null,"shop":null,"source":null,"supervised":null}},{"type":"Feature","geometry":{"type":"LineString","coordinates":[[122.241497,10.6466159,0],[122.2414924,10.6465554,0],[122.2414834,10.6464267,0]]},"properties":{"fid":5,"id":"way/1395181446","@id":"way/1395181446","access":null,"addr:city":null,"addr:street":null,"alt_name":null,"building":null,"crossing":null,"crossing:markings":null,"designation":null,"foot":"yes","footway":null,"highway":"footway","name":null,"nat_name":null,"oneway":null,"ref":null,"shelter":null,"shop":null,"source":null,"supervised":null}},{"type":"Feature","geometry":{"type":"LineString","coordinates":[[122.2419469,10.6465911,0],[122.2419312,10.6463873,0],[122.2419304,10.6463566,0],[122.2419164,10.646132,0],[122.24191,10.6459907,0],[122.2419115,10.6459527,0],[122.2419061,10.6458719,0],[122.2419138,10.6458109,0],[122.2418919,10.645433,0],[122.2419216,10.6453944,0]]},"properties":{"fid":7,"id":"way/1539907885","@id":"way/1539907885","access":null,"addr:city":null,"addr:street":null,"alt_name":null,"building":null,"crossing":null,"crossing:markings":null,"designation":null,"foot":"yes","footway":null,"highway":"footway","name":null,"nat_name":null,"oneway":null,"ref":null,"shelter":null,"shop":null,"source":null,"supervised":null}},{"type":"Feature","geometry":{"type":"LineString","coordinates":[[122.2409832,10.6466559,0],[122.2412686,10.6466336,0],[122.241497,10.6466159,0],[122.2417164,10.6466055,0],[122.2419469,10.6465911,0]]},"properties":{"fid":9,"id":"way/1539907887","@id":"way/1539907887","access":null,"addr:city":null,"addr:street":null,"alt_name":null,"building":null,"crossing":null,"crossing:markings":null,"designation":null,"foot":"yes","footway":null,"highway":"footway","name":null,"nat_name":null,"oneway":null,"ref":null,"shelter":null,"shop":null,"source":null,"supervised":null}},{"type":"Feature","geometry":{"type":"LineString","coordinates":[[122.2409683,10.6463968,0],[122.2411775,10.6463929,0],[122.2412881,10.6463911,0],[122.2413838,10.6463896,0],[122.2414802,10.6463881,0],[122.2414834,10.6464267,0]]},"properties":{"fid":10,"id":"way/1539907888","@id":"way/1539907888","access":null,"addr:city":null,"addr:street":null,"alt_name":null,"building":null,"crossing":null,"crossing:markings":null,"designation":null,"foot":"yes","footway":null,"highway":"footway","name":null,"nat_name":null,"oneway":null,"ref":null,"shelter":null,"shop":null,"source":null,"supervised":null}},{"type":"Feature","geometry":{"type":"LineString","coordinates":[[122.2411775,10.6463929,0],[122.2411653,10.6462461,0],[122.2411517,10.6460827,0],[122.241376,10.6460703],[122.2413855,10.6461614],[122.2413929,10.6462757],[122.2413992,10.6463894]]},"properties":{"fid":11,"id":"way/1539907889","@id":"way/1539907889","access":null,"addr:city":null,"addr:street":null,"alt_name":null,"building":null,"crossing":null,"crossing:markings":null,"designation":null,"foot":"yes","footway":null,"highway":"footway","name":null,"nat_name":null,"oneway":null,"ref":null,"shelter":null,"shop":null,"source":null,"supervised":null}},{"type":"Feature","geometry":{"type":"LineString","coordinates":[[122.2411758,10.6459227,0],[122.2411791,10.6459679,0]]},"properties":{"fid":12,"id":"way/1539907890","@id":"way/1539907890","access":null,"addr:city":null,"addr:street":null,"alt_name":null,"building":null,"crossing":null,"crossing:markings":null,"designation":null,"foot":"yes","footway":null,"highway":"footway","name":null,"nat_name":null,"oneway":null,"ref":null,"shelter":null,"shop":null,"source":null,"supervised":null}},{"type":"Feature","geometry":{"type":"LineString","coordinates":[[122.2413759,10.6460702],[122.2413638,10.6459897],[122.2413404,10.6459011,0]]},"properties":{"fid":13,"id":"way/1539907891","@id":"way/1539907891","access":null,"addr:city":null,"addr:street":null,"alt_name":null,"building":null,"crossing":null,"crossing:markings":null,"designation":null,"foot":"yes","footway":null,"highway":"footway","name":null,"nat_name":null,"oneway":null,"ref":null,"shelter":null,"shop":null,"source":null,"supervised":null}},{"type":"Feature","geometry":{"type":"LineString","coordinates":[[122.2413634,10.6459894],[122.2413871,10.6459877,0],[122.2414533,10.6459849,0],[122.2416179,10.6459778,0],[122.2418195,10.6459617,0],[122.2419115,10.6459527,0]]},"properties":{"fid":14,"id":"way/1539907892","@id":"way/1539907892","access":null,"addr:city":null,"addr:street":null,"alt_name":null,"building":null,"crossing":null,"crossing:markings":null,"designation":null,"foot":"yes","footway":null,"highway":"footway","name":null,"nat_name":null,"oneway":null,"ref":null,"shelter":null,"shop":null,"source":null,"supervised":null}},{"type":"Feature","geometry":{"type":"LineString","coordinates":[[122.2415651,10.6453772,0],[122.2416158,10.6457883,0],[122.2416194,10.6458178,0],[122.2416179,10.6459778,0]]},"properties":{"fid":15,"id":"way/1539907893","@id":"way/1539907893","access":null,"addr:city":null,"addr:street":null,"alt_name":null,"building":null,"crossing":null,"crossing:markings":null,"designation":null,"foot":"yes","footway":null,"highway":"footway","name":null,"nat_name":null,"oneway":null,"ref":null,"shelter":null,"shop":null,"source":null,"supervised":null}},{"type":"Feature","geometry":{"type":"LineString","coordinates":[[122.2414802,10.6463881,0],[122.2417003,10.6463738,0],[122.2419304,10.6463566,0]]},"properties":{"fid":16,"id":"way/1539907894","@id":"way/1539907894","access":null,"addr:city":null,"addr:street":null,"alt_name":null,"building":null,"crossing":null,"crossing:markings":null,"designation":null,"foot":"yes","footway":null,"highway":"footway","name":null,"nat_name":null,"oneway":null,"ref":null,"shelter":null,"shop":null,"source":null,"supervised":null}},{"type":"Feature","geometry":{"type":"LineString","coordinates":[[122.2413856,10.6461618],[122.2415663,10.6461507,0],[122.2416124,10.6461575,0],[122.2416747,10.6461454,0],[122.2419164,10.646132,0]]},"properties":{"fid":18,"id":"way/1539907898","@id":"way/1539907898","access":null,"addr:city":null,"addr:street":null,"alt_name":null,"building":null,"crossing":null,"crossing:markings":null,"designation":null,"foot":"yes","footway":null,"highway":"footway","name":null,"nat_name":null,"oneway":null,"ref":null,"shelter":null,"shop":null,"source":null,"supervised":null}},{"type":"Feature","geometry":{"type":"LineString","coordinates":[[122.2409699,10.6464255,0],[122.2408998,10.6464259,0]]},"properties":{"fid":19,"id":"way/1539907899","@id":"way/1539907899","access":null,"addr:city":null,"addr:street":null,"alt_name":null,"building":null,"crossing":null,"crossing:markings":null,"designation":null,"foot":"yes","footway":null,"highway":"footway","name":null,"nat_name":null,"oneway":null,"ref":null,"shelter":null,"shop":null,"source":null,"supervised":null}},{"type":"Feature","geometry":{"type":"LineString","coordinates":[[122.2409594,10.6462518,0],[122.240915,10.6462534,0]]},"properties":{"fid":20,"id":"way/1539907900","@id":"way/1539907900","access":null,"addr:city":null,"addr:street":null,"alt_name":null,"building":null,"crossing":null,"crossing:markings":null,"designation":null,"foot":null,"footway":null,"highway":"footway","name":null,"nat_name":null,"oneway":null,"ref":null,"shelter":null,"shop":null,"source":null,"supervised":null}},{"type":"Feature","geometry":{"type":"LineString","coordinates":[[122.2409818,10.6457212,0],[122.2409489,10.6457394,0]]},"properties":{"fid":21,"id":"way/1539907901","@id":"way/1539907901","access":null,"addr:city":null,"addr:street":null,"alt_name":null,"building":null,"crossing":null,"crossing:markings":null,"designation":null,"foot":"yes","footway":null,"highway":"footway","name":null,"nat_name":null,"oneway":null,"ref":null,"shelter":null,"shop":null,"source":null,"supervised":null}},{"type":"Feature","geometry":{"type":"LineString","coordinates":[[122.2409291,10.6456243,0],[122.2408944,10.6456413,0]]},"properties":{"fid":22,"id":"way/1539907902","@id":"way/1539907902","access":null,"addr:city":null,"addr:street":null,"alt_name":null,"building":null,"crossing":null,"crossing:markings":null,"designation":null,"foot":"yes","footway":null,"highway":"footway","name":null,"nat_name":null,"oneway":null,"ref":null,"shelter":null,"shop":null,"source":null,"supervised":null}},{"type":"Feature","geometry":{"type":"LineString","coordinates":[[122.2408738,10.6454946,0],[122.2408161,10.6455132,0]]},"properties":{"fid":23,"id":"way/1539907903","@id":"way/1539907903","access":null,"addr:city":null,"addr:street":null,"alt_name":null,"building":null,"crossing":null,"crossing:markings":null,"designation":null,"foot":"yes","footway":null,"highway":"footway","name":null,"nat_name":null,"oneway":null,"ref":null,"shelter":null,"shop":null,"source":null,"supervised":null}},{"type":"Feature","geometry":{"type":"LineString","coordinates":[[122.2415651,10.6453772,0],[122.2416624,10.6453622,0],[122.2418687,10.645309,0],[122.2419151,10.6453744,0],[122.2419216,10.6453944,0]]},"properties":{"fid":24,"id":"way/1539907904","@id":"way/1539907904","access":null,"addr:city":null,"addr:street":null,"alt_name":null,"building":null,"crossing":null,"crossing:markings":null,"designation":null,"foot":null,"footway":"sidewalk","highway":"footway","name":null,"nat_name":null,"oneway":null,"ref":null,"shelter":null,"shop":null,"source":null,"supervised":null}},{"type":"Feature","geometry":{"type":"LineString","coordinates":[[122.2415651,10.6453772,0],[122.2412562,10.6453865,0],[122.2409419,10.6453219,0],[122.2408195,10.6452762,0]]},"properties":{"fid":25,"id":"way/1539907905","@id":"way/1539907905","access":null,"addr:city":null,"addr:street":null,"alt_name":null,"building":null,"crossing":null,"crossing:markings":null,"designation":null,"foot":null,"footway":"sidewalk","highway":"footway","name":null,"nat_name":null,"oneway":null,"ref":null,"shelter":null,"shop":null,"source":null,"supervised":null}},{"type":"Feature","geometry":{"type":"LineString","coordinates":[[122.2418687,10.645309,0],[122.2420521,10.6452607,0],[122.2423611,10.6450765,0]]},"properties":{"fid":26,"id":"way/1539907906","@id":"way/1539907906","access":null,"addr:city":null,"addr:street":null,"alt_name":null,"building":null,"crossing":null,"crossing:markings":null,"designation":null,"foot":null,"footway":"sidewalk","highway":"footway","name":null,"nat_name":null,"oneway":null,"ref":null,"shelter":null,"shop":null,"source":null,"supervised":null}},{"type":"Feature","geometry":{"type":"Polygon","coordinates":[[[122.2414028,10.6461439],[122.2413883,10.6460028],[122.2419002,10.645969],[122.2419053,10.6461152],[122.2414028,10.6461439]]]},"properties":{"id":"way/1543053040","@id":"way/1543053040","access":null,"addr:city":null,"alt_name":null,"building":"school","designation":null,"foot":null,"footway":null,"highway":null,"layer":null,"name":"Admin Building","nat_name":null,"oneway":null,"ref":null,"shop":null,"source":null}},{"type":"Feature","geometry":{"type":"Polygon","coordinates":[[[122.2414068,10.6463718],[122.2413962,10.6461853],[122.2418988,10.6461526],[122.2419158,10.6463446],[122.2414068,10.6463718]]]},"properties":{"id":"way/1543053041","@id":"way/1543053041","access":null,"addr:city":null,"alt_name":null,"building":"school","designation":null,"foot":null,"footway":null,"highway":null,"layer":"1","name":"Covered Court","nat_name":null,"oneway":null,"ref":null,"shop":null,"source":null}},{"type":"Feature","geometry":{"type":"Polygon","coordinates":[[[122.2409929,10.6463683],[122.2409685,10.6461046],[122.2411376,10.6461061],[122.2411522,10.6463707],[122.2409929,10.6463683]]]},"properties":{"id":"way/1543053042","@id":"way/1543053042","access":null,"addr:city":null,"alt_name":null,"building":"school","designation":null,"foot":null,"footway":null,"highway":null,"layer":null,"name":"Computer Laboraty","nat_name":null,"oneway":null,"ref":null,"shop":null,"source":null}},{"type":"Feature","geometry":{"type":"Polygon","coordinates":[[[122.2410596,10.6460662],[122.2410457,10.6459815],[122.2412726,10.6459815],[122.2412758,10.6460574],[122.2410596,10.6460662]]]},"properties":{"id":"way/1543053043","@id":"way/1543053043","access":null,"addr:city":null,"alt_name":null,"building":"school","designation":null,"foot":null,"footway":null,"highway":null,"layer":null,"name":"Registrar","nat_name":null,"oneway":null,"ref":null,"shop":null,"source":null}},{"type":"Feature","geometry":{"type":"Polygon","coordinates":[[[122.2410764,10.6466029],[122.2410048,10.6466013],[122.2409877,10.6464343],[122.241065,10.6464311],[122.2410764,10.6466029]]]},"properties":{"id":"way/1543053044","@id":"way/1543053044","access":null,"addr:city":null,"alt_name":null,"building":"school","designation":null,"foot":null,"footway":null,"highway":null,"layer":null,"name":"Coop","nat_name":null,"oneway":null,"ref":null,"shop":null,"source":null}},{"type":"Feature","geometry":{"type":"Polygon","coordinates":[[[122.241089,10.6465668],[122.2410817,10.6464149],[122.2414568,10.6464013],[122.2414614,10.6465457],[122.241089,10.6465668]]]},"properties":{"id":"way/1543053045","@id":"way/1543053045","access":null,"addr:city":null,"alt_name":null,"building":"school","designation":null,"foot":null,"footway":null,"highway":null,"layer":null,"name":"E Building","nat_name":null,"oneway":null,"ref":null,"shop":null,"source":null}},{"type":"Feature","geometry":{"type":"Polygon","coordinates":[[[122.2415243,10.6465426],[122.2415077,10.6463985],[122.2419181,10.6463706],[122.2419298,10.6465129],[122.2415243,10.6465426]]]},"properties":{"id":"way/1543053046","@id":"way/1543053046","access":null,"addr:city":null,"alt_name":null,"building":"school","designation":null,"foot":null,"footway":null,"highway":null,"layer":null,"name":"D Building","nat_name":null,"oneway":null,"ref":null,"shop":null,"source":null}},{"type":"Feature","geometry":{"type":"Polygon","coordinates":[[[122.2415471,10.6467836],[122.2415323,10.6466407],[122.2419273,10.6466116],[122.2419365,10.64676],[122.2415471,10.6467836]]]},"properties":{"id":"way/1543053047","@id":"way/1543053047","access":null,"addr:city":null,"alt_name":null,"building":"school","designation":null,"foot":null,"footway":null,"highway":null,"layer":null,"name":"Science Building","nat_name":null,"oneway":null,"ref":null,"shop":null,"source":null}},{"type":"Feature","geometry":{"type":"Polygon","coordinates":[[[122.2410295,10.6468417],[122.2410215,10.6466734],[122.2414559,10.6466383],[122.241467,10.6468048],[122.2410295,10.6468417]]]},"properties":{"id":"way/1543053048","@id":"way/1543053048","access":null,"addr:city":null,"alt_name":null,"building":"school","designation":null,"foot":null,"footway":null,"highway":null,"layer":null,"name":"Home Tech Building","nat_name":null,"oneway":null,"ref":null,"shop":null,"source":null}},{"type":"Feature","geometry":{"type":"Polygon","coordinates":[[[122.2408996,10.646286],[122.2408312,10.6462939],[122.2408133,10.6462097],[122.2409008,10.6462048],[122.2408996,10.646286]]]},"properties":{"id":"way/1543053051","@id":"way/1543053051","access":null,"addr:city":null,"alt_name":null,"building":"school","designation":null,"foot":null,"footway":null,"highway":null,"layer":null,"name":"ROTC","nat_name":null,"oneway":null,"ref":null,"shop":null,"source":null}},{"type":"Feature","geometry":{"type":"Polygon","coordinates":[[[122.2409247,10.6465482],[122.2409424,10.6470898],[122.2408061,10.6470907],[122.2407734,10.6465565],[122.2409247,10.6465482]]]},"properties":{"id":"way/1543053052","@id":"way/1543053052","access":null,"addr:city":null,"alt_name":null,"building":"school","designation":null,"foot":null,"footway":null,"highway":null,"layer":null,"name":"Automotive Building","nat_name":null,"oneway":null,"ref":null,"shop":null,"source":null}},{"type":"Feature","geometry":{"type":"Polygon","coordinates":[[[122.2409499,10.647099],[122.2409546,10.6473468],[122.2408089,10.6473542],[122.2407864,10.6471036],[122.2409499,10.647099]]]},"properties":{"id":"way/1543053053","@id":"way/1543053053","access":null,"addr:city":null,"alt_name":null,"building":"school","designation":null,"foot":null,"footway":null,"highway":null,"layer":null,"name":"Innovation Center","nat_name":null,"oneway":null,"ref":null,"shop":null,"source":null}},{"type":"Feature","geometry":{"type":"Polygon","coordinates":[[[122.2410466,10.6477209],[122.2410391,10.6475027],[122.2414576,10.6474689],[122.2414393,10.6477136],[122.2410466,10.6477209]]]},"properties":{"id":"way/1543053054","@id":"way/1543053054","access":null,"addr:city":null,"alt_name":null,"building":"school","designation":null,"foot":null,"footway":null,"highway":null,"layer":null,"name":"PE Gym","nat_name":null,"oneway":null,"ref":null,"shop":null,"source":null}},{"type":"Feature","geometry":{"type":"Polygon","coordinates":[[[122.241919,10.6455771],[122.2419237,10.6454238],[122.2422571,10.6453898],[122.2422711,10.6455459],[122.241919,10.6455771]]]},"properties":{"id":"way/1543053055","@id":"way/1543053055","access":null,"addr:city":null,"alt_name":null,"building":"school","designation":null,"foot":null,"footway":null,"highway":null,"layer":null,"name":"ISAT U Miagao Campus Hostel","nat_name":null,"oneway":null,"ref":null,"shop":null,"source":null}},{"type":"Feature","geometry":{"type":"Polygon","coordinates":[[[122.2409651,10.6457985],[122.2408856,10.6458729],[122.240803,10.6458209],[122.2409022,10.645727],[122.2409651,10.6457985]]]},"properties":{"id":"way/1543053056","@id":"way/1543053056","access":null,"addr:city":null,"alt_name":null,"building":"school","designation":null,"foot":null,"footway":null,"highway":null,"layer":null,"name":"Chapel","nat_name":null,"oneway":null,"ref":null,"shop":null,"source":null}},{"type":"Feature","geometry":{"type":"Polygon","coordinates":[[[122.2409004,10.6456894],[122.2408227,10.6457657],[122.240742,10.6457155],[122.2408344,10.6456186],[122.2409004,10.6456894]]]},"properties":{"id":"way/1543053057","@id":"way/1543053057","access":null,"addr:city":null,"alt_name":null,"building":"school","designation":null,"foot":null,"footway":null,"highway":null,"layer":null,"name":"Alumni Center","nat_name":null,"oneway":null,"ref":null,"shop":null,"source":null}},{"type":"Feature","geometry":{"type":"Polygon","coordinates":[[[122.2408073,10.6455924],[122.240705,10.6456954],[122.2406002,10.6456384],[122.2407383,10.6453962],[122.2408073,10.6455924]]]},"properties":{"id":"way/1543053058","@id":"way/1543053058","access":null,"addr:city":null,"alt_name":null,"building":"school","designation":null,"foot":null,"footway":null,"highway":null,"layer":null,"name":"Granisium","nat_name":null,"oneway":null,"ref":null,"shop":null,"source":null}},{"type":"Feature","geometry":{"type":"Polygon","coordinates":[[[122.2409384,10.6459808],[122.2409214,10.6459505],[122.2410176,10.6458935],[122.2410758,10.6459251],[122.241014,10.6459331],[122.2409384,10.6459808]]]},"properties":{"id":"way/1543053059","@id":"way/1543053059","access":null,"addr:city":null,"alt_name":null,"building":"school","designation":null,"foot":null,"footway":null,"highway":null,"layer":null,"name":"University Cafeteria","nat_name":null,"oneway":null,"ref":null,"shop":null,"source":null}},{"type":"Feature","geometry":{"type":"Polygon","coordinates":[[[122.2419199,10.6459669],[122.241968,10.6459615],[122.2419645,10.6460454],[122.241922,10.6460466],[122.2419199,10.6459669]]]},"properties":{"id":"way/1543053060","@id":"way/1543053060","access":null,"addr:city":null,"alt_name":null,"building":"school","designation":null,"foot":null,"footway":null,"highway":null,"layer":null,"name":"Supply Office","nat_name":null,"oneway":null,"ref":null,"shop":null,"source":null}},{"type":"Feature","properties":{},"geometry":{"type":"LineString","coordinates":[[122.2411521,10.6460831],[122.2409468,10.6460906]]}},{"type":"Feature","properties":{},"geometry":{"type":"Polygon","coordinates":[[[122.24083039165356,10.646476865148088],[122.24083039165356,10.646378164214582],[122.24088618594982,10.646378164214582],[122.24088618594982,10.646476865148088],[122.24083039165356,10.646476865148088]]]}},{"type":"Feature","properties":{},"geometry":{"type":"Polygon","coordinates":[[[122.2415051,10.6466024],[122.2415017,10.6465487],[122.2415315,10.6465491],[122.2415359,10.6466014],[122.2415051,10.6466024]]]}},{"type":"Feature","properties":{"name":"Drafting Building"},"geometry":{"type":"Polygon","coordinates":[[[122.2419439,10.6463705],[122.2421882,10.6463563],[122.2421953,10.6464793],[122.2419512,10.6465012],[122.2419439,10.6463705]]]}}]}