{"type":"FeatureCollection","features":[{"type":"Feature","geometry":{"type":"Point","coordinates":[122.240933,10.648255]},"properties":{"fid":2,"id":"node/3026614730","@id":"node/3026614730","access":null,"addr:city":null,"addr:street":null,"alt_name":null,"building":"yes","crossing":null,"crossing:markings":null,"designation":null,"foot":null,"footway":null,"highway":null,"name":"University Oval","nat_name":null,"oneway":null,"ref":null,"shelter":null,"shop":null,"source":null,"supervised":null,"ele_1":29}},{"type":"Feature","geometry":{"type":"Point","coordinates":[122.241565,10.645377]},"properties":{"fid":4,"id":"node/14021185359","@id":"node/14021185359","access":null,"addr:city":null,"addr:street":null,"alt_name":null,"building":"yes","crossing":null,"crossing:markings":null,"designation":null,"foot":null,"footway":null,"highway":null,"name":"Gate","nat_name":null,"oneway":null,"ref":null,"shelter":null,"shop":null,"source":null,"supervised":null,"ele_1":19.4296875}},{"type":"Feature","geometry":{"type":"Point","coordinates":[122.241616,10.645788]},"properties":{"fid":5,"id":"node/14021185360","@id":"node/14021185360","access":null,"addr:city":null,"addr:street":null,"alt_name":null,"building":"yes","crossing":null,"crossing:markings":null,"designation":null,"foot":null,"footway":null,"highway":null,"name":"Guard House","nat_name":null,"oneway":null,"ref":null,"shelter":null,"shop":null,"source":null,"supervised":null,"ele_1":25.6796875}},{"type":"Feature","geometry":{"type":"Point","coordinates":[122.241618,10.645978]},"properties":{"fid":6,"id":"node/14021185361","@id":"node/14021185361","access":null,"addr:city":null,"addr:street":null,"alt_name":null,"building":"yes","crossing":null,"crossing:markings":null,"designation":null,"foot":null,"footway":null,"highway":null,"name":"Admin Building","nat_name":null,"oneway":null,"ref":null,"shelter":null,"shop":null,"source":null,"supervised":null,"ele_1":26}},{"type":"Feature","geometry":{"type":"Point","coordinates":[122.241179,10.645968]},"properties":{"fid":7,"id":"node/14021185362","@id":"node/14021185362","access":null,"addr:city":null,"addr:street":null,"alt_name":null,"building":"yes","crossing":null,"crossing:markings":null,"designation":null,"foot":null,"footway":null,"highway":null,"name":"Registrar","nat_name":null,"oneway":null,"ref":null,"shelter":null,"shop":null,"source":null,"supervised":null,"ele_1":25.1171875}},{"type":"Feature","geometry":{"type":"Point","coordinates":[122.240994,10.645961]},"properties":{"fid":8,"id":"node/14021185363","@id":"node/14021185363","access":null,"addr:city":null,"addr:street":null,"alt_name":null,"building":"yes","crossing":null,"crossing:markings":null,"designation":null,"foot":null,"footway":null,"highway":null,"name":"University Cafeteria","nat_name":null,"oneway":null,"ref":null,"shelter":null,"shop":null,"source":null,"supervised":null,"ele_1":24.515625}},{"type":"Feature","geometry":{"type":"Point","coordinates":[122.241387,10.645988]},"properties":{"fid":9,"id":"node/14021185364","@id":"node/14021185364","access":null,"addr:city":null,"addr:street":null,"alt_name":null,"building":"yes","crossing":null,"crossing:markings":null,"designation":null,"foot":null,"footway":null,"highway":null,"name":"Clinic","nat_name":null,"oneway":null,"ref":null,"shelter":null,"shop":null,"source":null,"supervised":null,"ele_1":25.8671875}},{"type":"Feature","geometry":{"type":"Point","coordinates":[122.24182,10.645962]},"properties":{"fid":10,"id":"node/14021185365","@id":"node/14021185365","access":null,"addr:city":null,"addr:street":null,"alt_name":null,"building":"yes","crossing":null,"crossing:markings":null,"designation":null,"foot":null,"footway":null,"highway":null,"name":"Cashier","nat_name":null,"oneway":null,"ref":null,"shelter":null,"shop":null,"source":null,"supervised":null,"ele_1":26.59375}},{"type":"Feature","geometry":{"type":"Point","coordinates":[122.24191,10.645991]},"properties":{"fid":11,"id":"node/14021185366","@id":"node/14021185366","access":null,"addr:city":null,"addr:street":null,"alt_name":null,"building":"yes","crossing":null,"crossing:markings":null,"designation":null,"foot":null,"footway":null,"highway":null,"name":"Supply Office","nat_name":null,"oneway":null,"ref":null,"shelter":null,"shop":null,"source":null,"supervised":null,"ele_1":27.08984375}},{"type":"Feature","geometry":{"type":"Point","coordinates":[122.241393,10.646276]},"properties":{"fid":12,"id":"node/14021185367","@id":"node/14021185367","access":null,"addr:city":null,"addr:street":null,"alt_name":null,"building":"yes","crossing":null,"crossing:markings":null,"designation":null,"foot":null,"footway":null,"highway":null,"name":"Covered Court","nat_name":null,"oneway":null,"ref":null,"shelter":null,"shop":null,"source":null,"supervised":null,"ele_1":26}},{"type":"Feature","geometry":{"type":"Point","coordinates":[122.2417,10.646374]},"properties":{"fid":13,"id":"node/14021185370","@id":"node/14021185370","access":null,"addr:city":null,"addr:street":null,"alt_name":null,"building":"yes","crossing":null,"crossing:markings":null,"designation":null,"foot":null,"footway":null,"highway":null,"name":"D Building","nat_name":null,"oneway":null,"ref":null,"shelter":null,"shop":null,"source":null,"supervised":null,"ele_1":26.18359375}},{"type":"Feature","geometry":{"type":"Point","coordinates":[122.241165,10.646246]},"properties":{"fid":14,"id":"node/14021185371","@id":"node/14021185371","access":null,"addr:city":null,"addr:street":null,"alt_name":null,"building":"yes","crossing":null,"crossing:markings":null,"designation":null,"foot":null,"footway":null,"highway":null,"name":"Computer Laboratory","nat_name":null,"oneway":null,"ref":null,"shelter":null,"shop":null,"source":null,"supervised":null,"ele_1":25.5546875}},{"type":"Feature","geometry":{"type":"Point","coordinates":[122.2409,10.646426]},"properties":{"fid":15,"id":"node/14021185372","@id":"node/14021185372","access":null,"addr:city":null,"addr:street":null,"alt_name":null,"building":"yes","crossing":null,"crossing:markings":null,"designation":null,"foot":null,"footway":null,"highway":null,"name":"CR","nat_name":null,"oneway":null,"ref":null,"shelter":null,"shop":null,"source":null,"supervised":null,"ele_1":25.22265625}},{"type":"Feature","geometry":{"type":"Point","coordinates":[122.240978,10.64656]},"properties":{"fid":16,"id":"node/14021185373","@id":"node/14021185373","access":null,"addr:city":null,"addr:street":null,"alt_name":null,"building":"yes","crossing":null,"crossing:markings":null,"designation":null,"foot":null,"footway":null,"highway":null,"name":"University Coop","nat_name":null,"oneway":null,"ref":null,"shelter":null,"shop":null,"source":null,"supervised":null,"ele_1":25.32421875}},{"type":"Feature","geometry":{"type":"Point","coordinates":[122.241269,10.646634]},"properties":{"fid":17,"id":"node/14021185374","@id":"node/14021185374","access":null,"addr:city":null,"addr:street":null,"alt_name":null,"building":"yes","crossing":null,"crossing:markings":null,"designation":null,"foot":null,"footway":null,"highway":null,"name":"HomeTech Building","nat_name":null,"oneway":null,"ref":null,"shelter":null,"shop":null,"source":null,"supervised":null,"ele_1":25.8359375}},{"type":"Feature","geometry":{"type":"Point","coordinates":[122.241716,10.646606]},"properties":{"fid":18,"id":"node/14021185375","@id":"node/14021185375","access":null,"addr:city":null,"addr:street":null,"alt_name":null,"building":"yes","crossing":null,"crossing:markings":null,"designation":null,"foot":null,"footway":null,"highway":null,"name":"Science Building","nat_name":null,"oneway":null,"ref":null,"shelter":null,"shop":null,"source":null,"supervised":null,"ele_1":27.03125}},{"type":"Feature","geometry":{"type":"Point","coordinates":[122.241931,10.646387]},"properties":{"fid":19,"id":"node/14021185376","@id":"node/14021185376","access":null,"addr:city":null,"addr:street":null,"alt_name":null,"building":"yes","crossing":null,"crossing:markings":null,"designation":null,"foot":null,"footway":null,"highway":null,"name":"Drafting Building","nat_name":null,"oneway":null,"ref":null,"shelter":null,"shop":null,"source":null,"supervised":null,"ele_1":27.03515625}},{"type":"Feature","geometry":{"type":"Point","coordinates":[122.240999,10.647571]},"properties":{"fid":20,"id":"node/14021185377","@id":"node/14021185377","access":null,"addr:city":null,"addr:street":null,"alt_name":null,"building":"yes","crossing":null,"crossing:markings":null,"designation":null,"foot":null,"footway":null,"highway":null,"name":"P.E. Gym","nat_name":null,"oneway":null,"ref":null,"shelter":null,"shop":null,"source":null,"supervised":null,"ele_1":23.36328125}},{"type":"Feature","geometry":{"type":"Point","coordinates":[122.240988,10.646748]},"properties":{"fid":21,"id":"node/14021185378","@id":"node/14021185378","access":null,"addr:city":null,"addr:street":null,"alt_name":null,"building":"yes","crossing":null,"crossing:markings":null,"designation":null,"foot":null,"footway":null,"highway":null,"name":"Automotive Building","nat_name":null,"oneway":null,"ref":null,"shelter":null,"shop":null,"source":null,"supervised":null,"ele_1":27.05078125}},{"type":"Feature","geometry":{"type":"Point","coordinates":[122.241,10.64723]},"properties":{"fid":22,"id":"node/14021185379","@id":"node/14021185379","access":null,"addr:city":null,"addr:street":null,"alt_name":null,"building":"yes","crossing":null,"crossing:markings":null,"designation":null,"foot":null,"footway":null,"highway":null,"name":"Innovation Center","nat_name":null,"oneway":null,"ref":null,"shelter":null,"shop":null,"source":null,"supervised":null,"ele_1":25.83984375}},{"type":"Feature","geometry":{"type":"Point","coordinates":[122.241922,10.645394]},"properties":{"fid":25,"id":"node/14021185382","@id":"node/14021185382","access":null,"addr:city":null,"addr:street":null,"alt_name":null,"building":"yes","crossing":null,"crossing:markings":null,"designation":null,"foot":null,"footway":null,"highway":null,"name":"ISAT U Miagao Campus Hostel","nat_name":null,"oneway":null,"ref":null,"shelter":null,"shop":null,"source":null,"supervised":null,"ele_1":21.98828125}},{"type":"Feature","geometry":{"type":"Point","coordinates":[122.240949,10.645739]},"properties":{"fid":26,"id":"node/14021185383","@id":"node/14021185383","access":null,"addr:city":null,"addr:street":null,"alt_name":null,"building":"yes","crossing":null,"crossing:markings":null,"designation":null,"foot":null,"footway":null,"highway":null,"name":"Chapel","nat_name":null,"oneway":null,"ref":null,"shelter":null,"shop":null,"source":null,"supervised":null,"ele_1":22.71484375}},{"type":"Feature","geometry":{"type":"Point","coordinates":[122.240894,10.645641]},"properties":{"fid":27,"id":"node/14021185384","@id":"node/14021185384","access":null,"addr:city":null,"addr:street":null,"alt_name":null,"building":"yes","crossing":null,"crossing:markings":null,"designation":null,"foot":null,"footway":null,"highway":null,"name":"Alumni Center","nat_name":null,"oneway":null,"ref":null,"shelter":null,"shop":null,"source":null,"supervised":null,"ele_1":21.625}},{"type":"Feature","geometry":{"type":"Point","coordinates":[122.240816,10.645513]},"properties":{"fid":28,"id":"node/14021185385","@id":"node/14021185385","access":null,"addr:city":null,"addr:street":null,"alt_name":null,"building":"yes","crossing":null,"crossing:markings":null,"designation":null,"foot":null,"footway":null,"highway":null,"name":"Granisium","nat_name":null,"oneway":null,"ref":null,"shelter":null,"shop":null,"source":null,"supervised":null,"ele_1":19.18359375}},{"type":"Feature","geometry":{"type":"Point","coordinates":[122.241947,10.646591]},"properties":{"fid":31,"id":"node/14021185398","@id":"node/14021185398","access":null,"addr:city":null,"addr:street":null,"alt_name":null,"building":"yes","crossing":null,"crossing:markings":null,"designation":null,"foot":null,"footway":null,"highway":null,"name":"Annex","nat_name":null,"oneway":null,"ref":null,"shelter":null,"shop":null,"source":null,"supervised":null,"ele_1":27.56640625}},{"type":"Feature","geometry":{"type":"Point","coordinates":[122.241612,10.646158]},"properties":{"fid":32,"id":"node/14021201922","@id":"node/14021201922","access":null,"addr:city":null,"addr:street":null,"alt_name":null,"building":"yes","crossing":null,"crossing:markings":null,"designation":null,"foot":null,"footway":null,"highway":null,"name":"Student Republic Office","nat_name":null,"oneway":null,"ref":null,"shelter":null,"shop":null,"source":null,"supervised":null,"ele_1":26}},{"type":"Feature","geometry":{"type":"Point","coordinates":[122.240915,10.646253]},"properties":{"fid":33,"id":"node/14021201928","@id":"node/14021201928","access":null,"addr:city":null,"addr:street":null,"alt_name":null,"building":"yes","crossing":null,"crossing:markings":null,"designation":null,"foot":null,"footway":null,"highway":null,"name":"ROTC","nat_name":null,"oneway":null,"ref":null,"shelter":null,"shop":null,"source":null,"supervised":null,"ele_1":24.578125}},{"type":"Feature","geometry":{"type":"Point","coordinates":[122.241492,10.646555]},"properties":{"fid":34,"id":"node/14021201940","@id":"node/14021201940","access":null,"addr:city":null,"addr:street":null,"alt_name":null,"building":"yes","crossing":null,"crossing:markings":null,"designation":null,"foot":null,"footway":null,"highway":null,"name":"CR","nat_name":null,"oneway":null,"ref":null,"shelter":null,"shop":null,"source":null,"supervised":null,"ele_1":26}},{"type":"Feature","geometry":{"type":"Point","coordinates":[122.241288,10.646391]},"properties":{"fid":35,"id":"node/14021333439","@id":"node/14021333439","access":null,"addr:city":null,"addr:street":null,"alt_name":null,"building":"yes","crossing":null,"crossing:markings":null,"designation":null,"foot":null,"footway":null,"highway":null,"name":"E Building","nat_name":null,"oneway":null,"ref":null,"shelter":null,"shop":null,"source":null,"supervised":null,"ele_1":25.59765625}},{"type":"Feature","geometry":{"type":"LineString","coordinates":[[122.242361,10.645077,0],[122.242411,10.64521,0],[122.242341,10.645472,0],[122.2422,10.645715,0],[122.241973,10.645793,0],[122.241914,10.645811,0],[122.241619,10.645818,0],[122.241332,10.645854,0],[122.241178,10.64583,0],[122.240982,10.645721,0],[122.240963,10.645704,0],[122.240929,10.645624,0],[122.240874,10.645495,0],[122.240839,10.645413,0],[122.24082,10.645276,0]]},"properties":{"fid":3,"id":"way/298284960","@id":"way/298284960","access":"private","addr:city":null,"addr:street":null,"alt_name":null,"building":null,"crossing":null,"crossing:markings":null,"designation":null,"foot":null,"footway":null,"highway":"footway","name":null,"nat_name":null,"oneway":"yes","ref":null,"shelter":null,"shop":null,"source":null,"supervised":null}},{"type":"Feature","geometry":{"type":"LineString","coordinates":[[122.241332,10.645854,0],[122.24134,10.645901,0],[122.241176,10.645923,0],[122.241024,10.645943,0],[122.240994,10.645961,0],[122.24094,10.645995,0],[122.240959,10.646252,0],[122.240968,10.646397,0],[122.24097,10.646426,0],[122.240978,10.64656,0],[122.240983,10.646656,0],[122.240988,10.646748,0],[122.240994,10.64689,0],[122.240998,10.647007,0],[122.240996,10.647104,0],[122.241,10.64723,0],[122.240999,10.647571,0],[122.240933,10.648255,0]]},"properties":{"fid":4,"id":"way/298743255","@id":"way/298743255","access":"yes","addr:city":null,"addr:street":null,"alt_name":null,"building":null,"crossing":null,"crossing:markings":null,"designation":null,"foot":null,"footway":"yes","highway":"footway","name":null,"nat_name":null,"oneway":null,"ref":null,"shelter":null,"shop":null,"source":null,"supervised":null}},{"type":"Feature","geometry":{"type":"LineString","coordinates":[[122.241497,10.646616,0],[122.241492,10.646555,0],[122.241483,10.646427,0]]},"properties":{"fid":5,"id":"way/1395181446","@id":"way/1395181446","access":null,"addr:city":null,"addr:street":null,"alt_name":null,"building":null,"crossing":null,"crossing:markings":null,"designation":null,"foot":"yes","footway":null,"highway":"footway","name":null,"nat_name":null,"oneway":null,"ref":null,"shelter":null,"shop":null,"source":null,"supervised":null}},{"type":"Feature","geometry":{"type":"LineString","coordinates":[[122.241947,10.646591,0],[122.241931,10.646387,0],[122.24193,10.646357,0],[122.241916,10.646132,0],[122.24191,10.645991,0],[122.241912,10.645953,0],[122.241906,10.645872,0],[122.241914,10.645811,0],[122.241892,10.645433,0],[122.241922,10.645394,0]]},"properties":{"fid":7,"id":"way/1539907885","@id":"way/1539907885","access":null,"addr:city":null,"addr:street":null,"alt_name":null,"building":null,"crossing":null,"crossing:markings":null,"designation":null,"foot":"yes","footway":null,"highway":"footway","name":null,"nat_name":null,"oneway":null,"ref":null,"shelter":null,"shop":null,"source":null,"supervised":null}},{"type":"Feature","geometry":{"type":"LineString","coordinates":[[122.240983,10.646656,0],[122.241269,10.646634,0],[122.241497,10.646616,0],[122.241716,10.646606,0],[122.241947,10.646591,0]]},"properties":{"fid":9,"id":"way/1539907887","@id":"way/1539907887","access":null,"addr:city":null,"addr:street":null,"alt_name":null,"building":null,"crossing":null,"crossing:markings":null,"designation":null,"foot":"yes","footway":null,"highway":"footway","name":null,"nat_name":null,"oneway":null,"ref":null,"shelter":null,"shop":null,"source":null,"supervised":null}},{"type":"Feature","geometry":{"type":"LineString","coordinates":[[122.240968,10.646397,0],[122.241178,10.646393,0],[122.241288,10.646391,0],[122.241384,10.64639,0],[122.24148,10.646388,0],[122.241483,10.646427,0]]},"properties":{"fid":10,"id":"way/1539907888","@id":"way/1539907888","access":null,"addr:city":null,"addr:street":null,"alt_name":null,"building":null,"crossing":null,"crossing:markings":null,"designation":null,"foot":"yes","footway":null,"highway":"footway","name":null,"nat_name":null,"oneway":null,"ref":null,"shelter":null,"shop":null,"source":null,"supervised":null}},{"type":"Feature","geometry":{"type":"LineString","coordinates":[[122.241178,10.646393,0],[122.241165,10.646246,0],[122.241152,10.646083,0],[122.241376,10.64607],[122.241386,10.646161],[122.241393,10.646276],[122.241399,10.646389]]},"properties":{"fid":11,"id":"way/1539907889","@id":"way/1539907889","access":null,"addr:city":null,"addr:street":null,"alt_name":null,"building":null,"crossing":null,"crossing:markings":null,"designation":null,"foot":"yes","footway":null,"highway":"footway","name":null,"nat_name":null,"oneway":null,"ref":null,"shelter":null,"shop":null,"source":null,"supervised":null}},{"type":"Feature","geometry":{"type":"LineString","coordinates":[[122.241176,10.645923,0],[122.241179,10.645968,0]]},"properties":{"fid":12,"id":"way/1539907890","@id":"way/1539907890","access":null,"addr:city":null,"addr:street":null,"alt_name":null,"building":null,"crossing":null,"crossing:markings":null,"designation":null,"foot":"yes","footway":null,"highway":"footway","name":null,"nat_name":null,"oneway":null,"ref":null,"shelter":null,"shop":null,"source":null,"supervised":null}},{"type":"Feature","geometry":{"type":"LineString","coordinates":[[122.241376,10.64607],[122.241364,10.64599],[122.24134,10.645901,0]]},"properties":{"fid":13,"id":"way/1539907891","@id":"way/1539907891","access":null,"addr:city":null,"addr:street":null,"alt_name":null,"building":null,"crossing":null,"crossing:markings":null,"designation":null,"foot":"yes","footway":null,"highway":"footway","name":null,"nat_name":null,"oneway":null,"ref":null,"shelter":null,"shop":null,"source":null,"supervised":null}},{"type":"Feature","geometry":{"type":"LineString","coordinates":[[122.241363,10.645989],[122.241387,10.645988,0],[122.241453,10.645985,0],[122.241618,10.645978,0],[122.24182,10.645962,0],[122.241912,10.645953,0]]},"properties":{"fid":14,"id":"way/1539907892","@id":"way/1539907892","access":null,"addr:city":null,"addr:street":null,"alt_name":null,"building":null,"crossing":null,"crossing:markings":null,"designation":null,"foot":"yes","footway":null,"highway":"footway","name":null,"nat_name":null,"oneway":null,"ref":null,"shelter":null,"shop":null,"source":null,"supervised":null}},{"type":"Feature","geometry":{"type":"LineString","coordinates":[[122.241565,10.645377,0],[122.241616,10.645788,0],[122.241619,10.645818,0],[122.241618,10.645978,0]]},"properties":{"fid":15,"id":"way/1539907893","@id":"way/1539907893","access":null,"addr:city":null,"addr:street":null,"alt_name":null,"building":null,"crossing":null,"crossing:markings":null,"designation":null,"foot":"yes","footway":null,"highway":"footway","name":null,"nat_name":null,"oneway":null,"ref":null,"shelter":null,"shop":null,"source":null,"supervised":null}},{"type":"Feature","geometry":{"type":"LineString","coordinates":[[122.24148,10.646388,0],[122.2417,10.646374,0],[122.24193,10.646357,0]]},"properties":{"fid":16,"id":"way/1539907894","@id":"way/1539907894","access":null,"addr:city":null,"addr:street":null,"alt_name":null,"building":null,"crossing":null,"crossing:markings":null,"designation":null,"foot":"yes","footway":null,"highway":"footway","name":null,"nat_name":null,"oneway":null,"ref":null,"shelter":null,"shop":null,"source":null,"supervised":null}},{"type":"Feature","geometry":{"type":"LineString","coordinates":[[122.241386,10.646162],[122.241566,10.646151,0],[122.241612,10.646158,0],[122.241675,10.646145,0],[122.241916,10.646132,0]]},"properties":{"fid":18,"id":"way/1539907898","@id":"way/1539907898","access":null,"addr:city":null,"addr:street":null,"alt_name":null,"building":null,"crossing":null,"crossing:markings":null,"designation":null,"foot":"yes","footway":null,"highway":"footway","name":null,"nat_name":null,"oneway":null,"ref":null,"shelter":null,"shop":null,"source":null,"supervised":null}},{"type":"Feature","geometry":{"type":"LineString","coordinates":[[122.24097,10.646426,0],[122.2409,10.646426,0]]},"properties":{"fid":19,"id":"way/1539907899","@id":"way/1539907899","access":null,"addr:city":null,"addr:street":null,"alt_name":null,"building":null,"crossing":null,"crossing:markings":null,"designation":null,"foot":"yes","footway":null,"highway":"footway","name":null,"nat_name":null,"oneway":null,"ref":null,"shelter":null,"shop":null,"source":null,"supervised":null}},{"type":"Feature","geometry":{"type":"LineString","coordinates":[[122.240959,10.646252,0],[122.240915,10.646253,0]]},"properties":{"fid":20,"id":"way/1539907900","@id":"way/1539907900","access":null,"addr:city":null,"addr:street":null,"alt_name":null,"building":null,"crossing":null,"crossing:markings":null,"designation":null,"foot":null,"footway":null,"highway":"footway","name":null,"nat_name":null,"oneway":null,"ref":null,"shelter":null,"shop":null,"source":null,"supervised":null}},{"type":"Feature","geometry":{"type":"LineString","coordinates":[[122.240982,10.645721,0],[122.240949,10.645739,0]]},"properties":{"fid":21,"id":"way/1539907901","@id":"way/1539907901","access":null,"addr:city":null,"addr:street":null,"alt_name":null,"building":null,"crossing":null,"crossing:markings":null,"designation":null,"foot":"yes","footway":null,"highway":"footway","name":null,"nat_name":null,"oneway":null,"ref":null,"shelter":null,"shop":null,"source":null,"supervised":null}},{"type":"Feature","geometry":{"type":"LineString","coordinates":[[122.240929,10.645624,0],[122.240894,10.645641,0]]},"properties":{"fid":22,"id":"way/1539907902","@id":"way/1539907902","access":null,"addr:city":null,"addr:street":null,"alt_name":null,"building":null,"crossing":null,"crossing:markings":null,"designation":null,"foot":"yes","footway":null,"highway":"footway","name":null,"nat_name":null,"oneway":null,"ref":null,"shelter":null,"shop":null,"source":null,"supervised":null}},{"type":"Feature","geometry":{"type":"LineString","coordinates":[[122.240874,10.645495,0],[122.240816,10.645513,0]]},"properties":{"fid":23,"id":"way/1539907903","@id":"way/1539907903","access":null,"addr:city":null,"addr:street":null,"alt_name":null,"building":null,"crossing":null,"crossing:markings":null,"designation":null,"foot":"yes","footway":null,"highway":"footway","name":null,"nat_name":null,"oneway":null,"ref":null,"shelter":null,"shop":null,"source":null,"supervised":null}},{"type":"Feature","geometry":{"type":"LineString","coordinates":[[122.241565,10.645377,0],[122.241662,10.645362,0],[122.241869,10.645309,0],[122.241915,10.645374,0],[122.241922,10.645394,0]]},"properties":{"fid":24,"id":"way/1539907904","@id":"way/1539907904","access":null,"addr:city":null,"addr:street":null,"alt_name":null,"building":null,"crossing":null,"crossing:markings":null,"designation":null,"foot":null,"footway":"sidewalk","highway":"footway","name":null,"nat_name":null,"oneway":null,"ref":null,"shelter":null,"shop":null,"source":null,"supervised":null}},{"type":"Feature","geometry":{"type":"LineString","coordinates":[[122.241565,10.645377,0],[122.241256,10.645387,0],[122.240942,10.645322,0],[122.24082,10.645276,0]]},"properties":{"fid":25,"id":"way/1539907905","@id":"way/1539907905","access":null,"addr:city":null,"addr:street":null,"alt_name":null,"building":null,"crossing":null,"crossing:markings":null,"designation":null,"foot":null,"footway":"sidewalk","highway":"footway","name":null,"nat_name":null,"oneway":null,"ref":null,"shelter":null,"shop":null,"source":null,"supervised":null}},{"type":"Feature","geometry":{"type":"LineString","coordinates":[[122.241869,10.645309,0],[122.242052,10.645261,0],[122.242361,10.645077,0]]},"properties":{"fid":26,"id":"way/1539907906","@id":"way/1539907906","access":null,"addr:city":null,"addr:street":null,"alt_name":null,"building":null,"crossing":null,"crossing:markings":null,"designation":null,"foot":null,"footway":"sidewalk","highway":"footway","name":null,"nat_name":null,"oneway":null,"ref":null,"shelter":null,"shop":null,"source":null,"supervised":null}},{"type":"Feature","geometry":{"type":"Polygon","coordinates":[[[122.241403,10.646144],[122.241388,10.646003],[122.2419,10.645969],[122.241905,10.646115],[122.241403,10.646144]]]},"properties":{"id":"way/1543053040","@id":"way/1543053040","access":null,"addr:city":null,"alt_name":null,"building":"school","designation":null,"foot":null,"footway":null,"highway":null,"layer":null,"name":"Admin Building","nat_name":null,"oneway":null,"ref":null,"shop":null,"source":null}},{"type":"Feature","geometry":{"type":"Polygon","coordinates":[[[122.241407,10.646372],[122.241396,10.646185],[122.241899,10.646153],[122.241916,10.646345],[122.241407,10.646372]]]},"properties":{"id":"way/1543053041","@id":"way/1543053041","access":null,"addr:city":null,"alt_name":null,"building":"school","designation":null,"foot":null,"footway":null,"highway":null,"layer":"1","name":"Covered Court","nat_name":null,"oneway":null,"ref":null,"shop":null,"source":null}},{"type":"Feature","geometry":{"type":"Polygon","coordinates":[[[122.240993,10.646368],[122.240969,10.646105],[122.241138,10.646106],[122.241152,10.646371],[122.240993,10.646368]]]},"properties":{"id":"way/1543053042","@id":"way/1543053042","access":null,"addr:city":null,"alt_name":null,"building":"school","designation":null,"foot":null,"footway":null,"highway":null,"layer":null,"name":"Computer Laboraty","nat_name":null,"oneway":null,"ref":null,"shop":null,"source":null}},{"type":"Feature","geometry":{"type":"Polygon","coordinates":[[[122.24106,10.646066],[122.241046,10.645982],[122.241273,10.645982],[122.241276,10.646057],[122.24106,10.646066]]]},"properties":{"id":"way/1543053043","@id":"way/1543053043","access":null,"addr:city":null,"alt_name":null,"building":"school","designation":null,"foot":null,"footway":null,"highway":null,"layer":null,"name":"Registrar","nat_name":null,"oneway":null,"ref":null,"shop":null,"source":null}},{"type":"Feature","geometry":{"type":"Polygon","coordinates":[[[122.241076,10.646603],[122.241005,10.646601],[122.240988,10.646434],[122.241065,10.646431],[122.241076,10.646603]]]},"properties":{"id":"way/1543053044","@id":"way/1543053044","access":null,"addr:city":null,"alt_name":null,"building":"school","designation":null,"foot":null,"footway":null,"highway":null,"layer":null,"name":"Coop","nat_name":null,"oneway":null,"ref":null,"shop":null,"source":null}},{"type":"Feature","geometry":{"type":"Polygon","coordinates":[[[122.241089,10.646567],[122.241082,10.646415],[122.241457,10.646401],[122.241461,10.646546],[122.241089,10.646567]]]},"properties":{"id":"way/1543053045","@id":"way/1543053045","access":null,"addr:city":null,"alt_name":null,"building":"school","designation":null,"foot":null,"footway":null,"highway":null,"layer":null,"name":"E Building","nat_name":null,"oneway":null,"ref":null,"shop":null,"source":null}},{"type":"Feature","geometry":{"type":"Polygon","coordinates":[[[122.241524,10.646543],[122.241508,10.646399],[122.241918,10.646371],[122.24193,10.646513],[122.241524,10.646543]]]},"properties":{"id":"way/1543053046","@id":"way/1543053046","access":null,"addr:city":null,"alt_name":null,"building":"school","designation":null,"foot":null,"footway":null,"highway":null,"layer":null,"name":"D Building","nat_name":null,"oneway":null,"ref":null,"shop":null,"source":null}},{"type":"Feature","geometry":{"type":"Polygon","coordinates":[[[122.241547,10.646784],[122.241532,10.646641],[122.241927,10.646612],[122.241937,10.64676],[122.241547,10.646784]]]},"properties":{"id":"way/1543053047","@id":"way/1543053047","access":null,"addr:city":null,"alt_name":null,"building":"school","designation":null,"foot":null,"footway":null,"highway":null,"layer":null,"name":"Science Building","nat_name":null,"oneway":null,"ref":null,"shop":null,"source":null}},{"type":"Feature","geometry":{"type":"Polygon","coordinates":[[[122.24103,10.646842],[122.241022,10.646673],[122.241456,10.646638],[122.241467,10.646805],[122.24103,10.646842]]]},"properties":{"id":"way/1543053048","@id":"way/1543053048","access":null,"addr:city":null,"alt_name":null,"building":"school","designation":null,"foot":null,"footway":null,"highway":null,"layer":null,"name":"Home Tech Building","nat_name":null,"oneway":null,"ref":null,"shop":null,"source":null}},{"type":"Feature","geometry":{"type":"Polygon","coordinates":[[[122.2409,10.646286],[122.240831,10.646294],[122.240813,10.64621],[122.240901,10.646205],[122.2409,10.646286]]]},"properties":{"id":"way/1543053051","@id":"way/1543053051","access":null,"addr:city":null,"alt_name":null,"building":"school","designation":null,"foot":null,"footway":null,"highway":null,"layer":null,"name":"ROTC","nat_name":null,"oneway":null,"ref":null,"shop":null,"source":null}},{"type":"Feature","geometry":{"type":"Polygon","coordinates":[[[122.240925,10.646548],[122.240942,10.64709],[122.240806,10.647091],[122.240773,10.646557],[122.240925,10.646548]]]},"properties":{"id":"way/1543053052","@id":"way/1543053052","access":null,"addr:city":null,"alt_name":null,"building":"school","designation":null,"foot":null,"footway":null,"highway":null,"layer":null,"name":"Automotive Building","nat_name":null,"oneway":null,"ref":null,"shop":null,"source":null}},{"type":"Feature","geometry":{"type":"Polygon","coordinates":[[[122.24095,10.647099],[122.240955,10.647347],[122.240809,10.647354],[122.240786,10.647104],[122.24095,10.647099]]]},"properties":{"id":"way/1543053053","@id":"way/1543053053","access":null,"addr:city":null,"alt_name":null,"building":"school","designation":null,"foot":null,"footway":null,"highway":null,"layer":null,"name":"Innovation Center","nat_name":null,"oneway":null,"ref":null,"shop":null,"source":null}},{"type":"Feature","geometry":{"type":"Polygon","coordinates":[[[122.241047,10.647721],[122.241039,10.647503],[122.241458,10.647469],[122.241439,10.647714],[122.241047,10.647721]]]},"properties":{"id":"way/1543053054","@id":"way/1543053054","access":null,"addr:city":null,"alt_name":null,"building":"school","designation":null,"foot":null,"footway":null,"highway":null,"layer":null,"name":"PE Gym","nat_name":null,"oneway":null,"ref":null,"shop":null,"source":null}},{"type":"Feature","geometry":{"type":"Polygon","coordinates":[[[122.241919,10.645577],[122.241924,10.645424],[122.242257,10.64539],[122.242271,10.645546],[122.241919,10.645577]]]},"properties":{"id":"way/1543053055","@id":"way/1543053055","access":null,"addr:city":null,"alt_name":null,"building":"school","designation":null,"foot":null,"footway":null,"highway":null,"layer":null,"name":"ISAT U Miagao Campus Hostel","nat_name":null,"oneway":null,"ref":null,"shop":null,"source":null}},{"type":"Feature","geometry":{"type":"Polygon","coordinates":[[[122.240965,10.645799],[122.240886,10.645873],[122.240803,10.645821],[122.240902,10.645727],[122.240965,10.645799]]]},"properties":{"id":"way/1543053056","@id":"way/1543053056","access":null,"addr:city":null,"alt_name":null,"building":"school","designation":null,"foot":null,"footway":null,"highway":null,"layer":null,"name":"Chapel","nat_name":null,"oneway":null,"ref":null,"shop":null,"source":null}},{"type":"Feature","geometry":{"type":"Polygon","coordinates":[[[122.2409,10.645689],[122.240823,10.645766],[122.240742,10.645716],[122.240834,10.645619],[122.2409,10.645689]]]},"properties":{"id":"way/1543053057","@id":"way/1543053057","access":null,"addr:city":null,"alt_name":null,"building":"school","designation":null,"foot":null,"footway":null,"highway":null,"layer":null,"name":"Alumni Center","nat_name":null,"oneway":null,"ref":null,"shop":null,"source":null}},{"type":"Feature","geometry":{"type":"Polygon","coordinates":[[[122.240807,10.645592],[122.240705,10.645695],[122.2406,10.645638],[122.240738,10.645396],[122.240807,10.645592]]]},"properties":{"id":"way/1543053058","@id":"way/1543053058","access":null,"addr:city":null,"alt_name":null,"building":"school","designation":null,"foot":null,"footway":null,"highway":null,"layer":null,"name":"Granisium","nat_name":null,"oneway":null,"ref":null,"shop":null,"source":null}},{"type":"Feature","geometry":{"type":"Polygon","coordinates":[[[122.240938,10.645981],[122.240921,10.645951],[122.241018,10.645894],[122.241076,10.645925],[122.241014,10.645933],[122.240938,10.645981]]]},"properties":{"id":"way/1543053059","@id":"way/1543053059","access":null,"addr:city":null,"alt_name":null,"building":"school","designation":null,"foot":null,"footway":null,"highway":null,"layer":null,"name":"University Cafeteria","nat_name":null,"oneway":null,"ref":null,"shop":null,"source":null}},{"type":"Feature","geometry":{"type":"Polygon","coordinates":[[[122.24192,10.645967],[122.241968,10.645962],[122.241965,10.646045],[122.241922,10.646047],[122.24192,10.645967]]]},"properties":{"id":"way/1543053060","@id":"way/1543053060","access":null,"addr:city":null,"alt_name":null,"building":"school","designation":null,"foot":null,"footway":null,"highway":null,"layer":null,"name":"Supply Office","nat_name":null,"oneway":null,"ref":null,"shop":null,"source":null}},{"type":"Feature","properties":{},"geometry":{"type":"LineString","coordinates":[[122.241152,10.646083],[122.240947,10.646091]]}},{"type":"Feature","properties":{},"geometry":{"type":"Polygon","coordinates":[[[122.24083,10.646477],[122.24083,10.646378],[122.240886,10.646378],[122.240886,10.646477],[122.24083,10.646477]]]}},{"type":"Feature","properties":{},"geometry":{"type":"Polygon","coordinates":[[[122.241505,10.646602],[122.241502,10.646549],[122.241532,10.646549],[122.241536,10.646601],[122.241505,10.646602]]]}},{"type":"Feature","properties":{"name":"Drafting Building"},"geometry":{"type":"Polygon","coordinates":[[[122.241944,10.646371],[122.242188,10.646356],[122.242195,10.646479],[122.241951,10.646501],[122.241944,10.646371]]]}}]}